GLOBALSTAR M084         
1 38040U 11080A   24258.91075057 -.00000077  00000+0  15087-3 0  9998
2 38040  52.0001 166.5169 0000631  92.8521 345.1999 12.62267407587902
GLOBALSTAR M080         
1 38041U 11080B   24259.22047626 -.00000084  00000+0  11113-3 0  9999
2 38041  52.0051 167.0845 0000914  92.2624  73.8257 12.62265511588207
GLOBALSTAR M082         
1 38042U 11080C   24258.88358076 -.00000064  00000+0  22073-3 0  9990
2 38042  52.0063 123.5271 0000620  31.2570 343.2800 12.62266589588909
GLOBALSTAR M092         
1 38043U 11080D   24259.17380957 -.00000100  00000+0  23577-4 0  9999
2 38043  52.0069 213.0044 0000323  75.8885 298.3010 12.62265935587436
GLOBALSTAR M090         
1 38044U 11080E   24258.90983502 -.00000075  00000+0  15994-3 0  9999
2 38044  51.9871 117.6101 0000696  54.7979 319.0947 12.62267620588852
GLOBALSTAR M086         
1 38045U 11080F   24259.04554054 -.00000068  00000+0  20134-3 0  9996
2 38045  51.9884 117.7255 0001689  71.2877  80.2396 12.62267064588916
GLOBALSTAR M097         
1 39072U 13005A   24259.51415846 -.00000098  00000+0  29465-4 0  9993
2 39072  52.0069  30.5670 0000856  77.5650 282.5313 12.62270455536209
GLOBALSTAR M093         
1 39073U 13005B   24259.09133346 -.00000086  00000+0  96776-4 0  9995
2 39073  51.9835  25.5942 0000790  73.8842 286.2111 12.62264047536144
